{"type": "FeatureCollection", "features": [ {"type": "Feature", "properties": {"norad_id": 34432, "name": "COSMOS 2251 DEB", "group": "cosmos-2251-debris", "lat": -47.01873022478533, "lon": -44.85375033859733, "alt_km": 773.0540129061419, "timestamp": "2025-12-04T09:47:37.914055+00:00", "meta": {"OBJECT_NAME": "COSMOS 2251 DEB", "OBJECT_ID": "1993-036RZ", "EPOCH": "2025-12-03T02:28:17.071104", "MEAN_MOTION": 14.02836729, "ECCENTRICITY": 0.01831849, "INCLINATION": 73.8275, "RA_OF_ASC_NODE": 119.3014, "ARG_OF_PERICENTER": 203.436, "MEAN_ANOMALY": 276.5797, "EPHEMERIS_TYPE": 0, "CLASSIFICATION_TYPE": "U", "NORAD_CAT_ID": 34432, "ELEMENT_SET_NO": 999, "REV_AT_EPOCH": 85549, "BSTAR": 0.0016054633, "MEAN_MOTION_DOT": 2.856e-05, "MEAN_MOTION_DDOT": 0}, "tle": {"line1": "1 34432U 93036RZ  25337.10297536  .00002856  00000+0  16055-2 0  9999", "line2": "2 34432  73.8275 119.3014 0183184 203.4360 276.5797 14.02836729855498"}}, "geometry": {"type": "Point", "coordinates": [-44.85375033859733, -47.01873022478533]}}, {"type": "Feature", "properties": {"norad_id": 34433, "name": "COSMOS 2251 DEB", "group": "cosmos-2251-debris", "lat": -42.85326340613948, "lon": 154.2683033285966, "alt_km": 746.9039977783868, "timestamp": "2025-12-04T09:47:37.914065+00:00", "meta": {"OBJECT_NAME": "COSMOS 2251 DEB", "OBJECT_ID": "1993-036SA", "EPOCH": "2025-12-03T00:00:45.111168", "MEAN_MOTION": 14.12779901, "ECCENTRICITY": 0.01517359, "INCLINATION": 74.0107, "RA_OF_ASC_NODE": 172.1866, "ARG_OF_PERICENTER": 312.4155, "MEAN_ANOMALY": 46.4228, "EPHEMERIS_TYPE": 0, "CLASSIFICATION_TYPE": "U", "NORAD_CAT_ID": 34433, "ELEMENT_SET_NO": 999, "REV_AT_EPOCH": 85812, "BSTAR": 0.0017302028, "MEAN_MOTION_DOT": 3.559e-05, "MEAN_MOTION_DDOT": 0}, "tle": {"line1": "1 34433U 93036SA  25337.00052212  .00003559  00000+0  17302-2 0  9996", "line2": "2 34433  74.0107 172.1866 0151735 312.4155  46.4228 14.12779901858123"}}, "geometry": {"type": "Point", "coordinates": [154.2683033285966, -42.85326340613948]}}, {"type": "Feature", "properties": {"norad_id": 34434, "name": "COSMOS 2251 DEB", "group": "cosmos-2251-debris", "lat": 2.526822654931443, "lon": -156.42877924592472, "alt_km": 735.4504746111752, "timestamp": "2025-12-04T09:47:37.914075+00:00", "meta": {"OBJECT_NAME": "COSMOS 2251 DEB", "OBJECT_ID": "1993-036SB", "EPOCH": "2025-12-03T22:55:01.016832", "MEAN_MOTION": 13.89706008, "ECCENTRICITY": 0.0276238, "INCLINATION": 74.0639, "RA_OF_ASC_NODE": 25.064, "ARG_OF_PERICENTER": 164.3761, "MEAN_ANOMALY": 265.6561, "EPHEMERIS_TYPE": 0, "CLASSIFICATION_TYPE": "U", "NORAD_CAT_ID": 34434, "ELEMENT_SET_NO": 999, "REV_AT_EPOCH": 83844, "BSTAR": 0.0057864949, "MEAN_MOTION_DOT": 9.636e-05, "MEAN_MOTION_DDOT": 0}, "tle": {"line1": "1 34434U 93036SB  25337.95487288  .00009636  00000+0  57865-2 0  9996", "line2": "2 34434  74.0639  25.0640 0276238 164.3761 265.6561 13.89706008838442"}}, "geometry": {"type": "Point", "coordinates": [-156.42877924592472, 2.526822654931443]}}, {"type": "Feature", "properties": {"norad_id": 34446, "name": "COSMOS 2251 DEB", "group": "cosmos-2251-debris", "lat": 16.88214354768942, "lon": 77.88755938759371, "alt_km": 763.3896712059604, "timestamp": "2025-12-04T09:47:37.914085+00:00", "meta": {"OBJECT_NAME": "COSMOS 2251 DEB", "OBJECT_ID": "1993-036SP", "EPOCH": "2025-12-03T10:31:10.797024", "MEAN_MOTION": 14.49334072, "ECCENTRICITY": 0.00515727, "INCLINATION": 74.0422, "RA_OF_ASC_NODE": 74.7236, "ARG_OF_PERICENTER": 214.8277, "MEAN_ANOMALY": 144.9505, "EPHEMERIS_TYPE": 0, "CLASSIFICATION_TYPE": "U", "NORAD_CAT_ID": 34446, "ELEMENT_SET_NO": 999, "REV_AT_EPOCH": 88559, "BSTAR": 0.00025913208, "MEAN_MOTION_DOT": 9.78e-06, "MEAN_MOTION_DDOT": 0}, "tle": {"line1": "1 34446U 93036SP  25337.43831941  .00000978  00000+0  25913-3 0  9991", "line2": "2 34446  74.0422  74.7236 0051572 214.8277 144.9505 14.49334072885592"}}, "geometry": {"type": "Point", "coordinates": [77.88755938759371, 16.88214354768942]}}, {"type": "Feature", "properties": {"norad_id": 34449, "name": "COSMOS 2251 DEB", "group": "cosmos-2251-debris", "lat": -66.40835249798025, "lon": -51.6803647287119, "alt_km": 600.0721069344236, "timestamp": "2025-12-04T09:47:37.914096+00:00", "meta": {"OBJECT_NAME": "COSMOS 2251 DEB", "OBJECT_ID": "1993-036SS", "EPOCH": "2025-12-03T18:45:32.810400", "MEAN_MOTION": 14.93927171, "ECCENTRICITY": 0.00248451, "INCLINATION": 74.0322, "RA_OF_ASC_NODE": 88.6117, "ARG_OF_PERICENTER": 137.2898, "MEAN_ANOMALY": 347.0572, "EPHEMERIS_TYPE": 0, "CLASSIFICATION_TYPE": "U", "NORAD_CAT_ID": 34449, "ELEMENT_SET_NO": 999, "REV_AT_EPOCH": 88559, "BSTAR": 0.0049074408, "MEAN_MOTION_DOT": 0.00052908, "MEAN_MOTION_DDOT": 0}, "tle": {"line1": "1 34449U 93036SS  25337.78162975  .00052908  00000+0  49074-2 0  9999", "line2": "2 34449  74.0322  88.6117 0024845 137.2898 347.0572 14.93927171885593"}}, "geometry": {"type": "Point", "coordinates": [-51.6803647287119, -66.40835249798025]}}, {"type": "Feature", "properties": {"norad_id": 34451, "name": "COSMOS 2251 DEB", "group": "cosmos-2251-debris", "lat": -21.708133313780216, "lon": -68.79364223260649, "alt_km": 582.6392371057509, "timestamp": "2025-12-04T09:47:37.914106+00:00", "meta": {"OBJECT_NAME": "COSMOS 2251 DEB", "OBJECT_ID": "1993-036SU", "EPOCH": "2025-12-02T10:18:18.339552", "MEAN_MOTION": 14.94509424, "ECCENTRICITY": 0.00259091, "INCLINATION": 74.0446, "RA_OF_ASC_NODE": 108.65, "ARG_OF_PERICENTER": 135.584, "MEAN_ANOMALY": 224.7428, "EPHEMERIS_TYPE": 0, "CLASSIFICATION_TYPE": "U", "NORAD_CAT_ID": 34451, "ELEMENT_SET_NO": 999, "REV_AT_EPOCH": 88481, "BSTAR": 0.0036537809, "MEAN_MOTION_DOT": 0.00039917, "MEAN_MOTION_DDOT": 0}, "tle": {"line1": "1 34451U 93036SU  25336.42937893  .00039917  00000+0  36538-2 0  9997", "line2": "2 34451  74.0446 108.6500 0025909 135.5840 224.7428 14.94509424884815"}}, "geometry": {"type": "Point", "coordinates": [-68.79364223260649, -21.708133313780216]}}, {"type": "Feature", "properties": {"norad_id": 34452, "name": "COSMOS 2251 DEB", "group": "cosmos-2251-debris", "lat": 17.041456549159378, "lon": 15.023722981960951, "alt_km": 552.5062725361613, "timestamp": "2025-12-04T09:47:37.914116+00:00", "meta": {"OBJECT_NAME": "COSMOS 2251 DEB", "OBJECT_ID": "1993-036SV", "EPOCH": "2025-12-03T17:41:07.353024", "MEAN_MOTION": 15.1130014, "ECCENTRICITY": 0.00673197, "INCLINATION": 74.0359, "RA_OF_ASC_NODE": 201.4454, "ARG_OF_PERICENTER": 279.6896, "MEAN_ANOMALY": 192.9722, "EPHEMERIS_TYPE": 0, "CLASSIFICATION_TYPE": "U", "NORAD_CAT_ID": 34452, "ELEMENT_SET_NO": 999, "REV_AT_EPOCH": 90526, "BSTAR": 0.0011397725, "MEAN_MOTION_DOT": 0.00020286, "MEAN_MOTION_DDOT": 0}, "tle": {"line1": "1 34452U 93036SV  25337.73689066  .00020286  00000+0  11398-2 0  9995", "line2": "2 34452  74.0359 201.4454 0067319 279.6896 192.9722 15.11300140905261"}}, "geometry": {"type": "Point", "coordinates": [15.023722981960951, 17.041456549159378]}}, {"type": "Feature", "properties": {"norad_id": 34453, "name": "COSMOS 2251 DEB", "group": "cosmos-2251-debris", "lat": 43.14332847344565, "lon": 133.45565451227324, "alt_km": 378.78374486845405, "timestamp": "2025-12-04T09:47:37.914126+00:00", "meta": {"OBJECT_NAME": "COSMOS 2251 DEB", "OBJECT_ID": "1993-036SW", "EPOCH": "2025-12-03T12:01:51.170880", "MEAN_MOTION": 15.57633461, "ECCENTRICITY": 0.00187588, "INCLINATION": 74.1173, "RA_OF_ASC_NODE": 119.9821, "ARG_OF_PERICENTER": 353.7042, "MEAN_ANOMALY": 6.3937, "EPHEMERIS_TYPE": 0, "CLASSIFICATION_TYPE": "U", "NORAD_CAT_ID": 34453, "ELEMENT_SET_NO": 999, "REV_AT_EPOCH": 88722, "BSTAR": 0.011553491, "MEAN_MOTION_DOT": 0.00949896, "MEAN_MOTION_DDOT": 0}, "tle": {"line1": "1 34453U 93036SW  25337.50128670  .00949896  00000+0  11553-1 0  9999", "line2": "2 34453  74.1173 119.9821 0018758 353.7042   6.3937 15.57633461887224"}}, "geometry": {"type": "Point", "coordinates": [133.45565451227324, 43.14332847344565]}}, {"type": "Feature", "properties": {"norad_id": 34454, "name": "COSMOS 2251 DEB", "group": "cosmos-2251-debris", "lat": -34.182462632399215, "lon": 124.17497941504432, "alt_km": 788.0587459937115, "timestamp": "2025-12-04T09:47:37.914136+00:00", "meta": {"OBJECT_NAME": "COSMOS 2251 DEB", "OBJECT_ID": "1993-036SX", "EPOCH": "2025-12-03T14:26:14.256960", "MEAN_MOTION": 14.38782265, "ECCENTRICITY": 0.00352145, "INCLINATION": 74.0585, "RA_OF_ASC_NODE": 294.4664, "ARG_OF_PERICENTER": 359.0088, "MEAN_ANOMALY": 1.099, "EPHEMERIS_TYPE": 0, "CLASSIFICATION_TYPE": "U", "NORAD_CAT_ID": 34454, "ELEMENT_SET_NO": 999, "REV_AT_EPOCH": 87936, "BSTAR": 0.00041216962, "MEAN_MOTION_DOT": 1.25e-05, "MEAN_MOTION_DDOT": 0}, "tle": {"line1": "1 34454U 93036SX  25337.60155390  .00001250  00000+0  41217-3 0  9995", "line2": "2 34454  74.0585 294.4664 0035214 359.0088   1.0990 14.38782265879362"}}, "geometry": {"type": "Point", "coordinates": [124.17497941504432, -34.182462632399215]}}, {"type": "Feature", "properties": {"norad_id": 34459, "name": "COSMOS 2251 DEB", "group": "cosmos-2251-debris", "lat": -71.14032785182695, "lon": -148.2293744626799, "alt_km": 827.0536626041967, "timestamp": "2025-12-04T09:47:37.914146+00:00", "meta": {"OBJECT_NAME": "COSMOS 2251 DEB", "OBJECT_ID": "1993-036TC", "EPOCH": "2025-12-03T20:26:48.669216", "MEAN_MOTION": 14.00473048, "ECCENTRICITY": 0.01918777, "INCLINATION": 74.079, "RA_OF_ASC_NODE": 269.4096, "ARG_OF_PERICENTER": 341.2033, "MEAN_ANOMALY": 18.2079, "EPHEMERIS_TYPE": 0, "CLASSIFICATION_TYPE": "U", "NORAD_CAT_ID": 34459, "ELEMENT_SET_NO": 999, "REV_AT_EPOCH": 85587, "BSTAR": 0.0010678037, "MEAN_MOTION_DOT": 1.834e-05, "MEAN_MOTION_DDOT": 0}, "tle": {"line1": "1 34459U 93036TC  25337.85195219  .00001834  00000+0  10678-2 0  9995", "line2": "2 34459  74.0790 269.4096 0191877 341.2033  18.2079 14.00473048855870"}}, "geometry": {"type": "Point", "coordinates": [-148.2293744626799, -71.14032785182695]}}]}